{
  "type": "FeatureCollection",
  "features": [
    {
      "type": "Feature",
      "properties": {
        "norad_id": 39773,
        "name": "EUTELSAT 3B",
        "group": "eutelsat",
        "lat": 0.009510404733231463,
        "lon": 154.19329410636684,
        "alt_km": 35780.67425706094,
        "timestamp": "2025-12-09T04:51:47.179634+00:00",
        "meta_object_name": "EUTELSAT 3B",
        "meta_object_id": "2014-030A",
        "meta_epoch": "2025-12-08T18:45:16.248384",
        "meta_mean_motion": 1.00271222,
        "meta_eccentricity": 0.0004785,
        "meta_inclination": 0.0638,
        "meta_ra_of_asc_node": 340.3118,
        "meta_arg_of_pericenter": 247.7629,
        "meta_mean_anomaly": 134.132,
        "meta_ephemeris_type": 0,
        "meta_classification_type": "U",
        "meta_norad_cat_id": 39773,
        "meta_element_set_no": 999,
        "meta_rev_at_epoch": 4215,
        "meta_bstar": 0,
        "meta_mean_motion_dot": 2.2e-07,
        "meta_mean_motion_ddot": 0,
        "tle_line1": "1 39773U 14030A   25342.78143806  .00000022  00000+0  00000+0 0  9992",
        "tle_line2": "2 39773   0.0638 340.3118 0004785 247.7629 134.1320  1.00271222 42152"
      },
      "geometry": {
        "type": "Point",
        "coordinates": [
          154.19329410636684,
          0.009510404733231463
        ]
      }
    },
    {
      "type": "Feature",
      "properties": {
        "norad_id": 40425,
        "name": "EUTELSAT 115 WEST B",
        "group": "eutelsat",
        "lat": -0.011237436551418624,
        "lon": 36.227494574207725,
        "alt_km": 35788.901957804155,
        "timestamp": "2025-12-09T04:51:47.179648+00:00",
        "meta_object_name": "EUTELSAT 115 WEST B",
        "meta_object_id": "2015-010B",
        "meta_epoch": "2025-12-08T16:28:50.714112",
        "meta_mean_motion": 1.0026292,
        "meta_eccentricity": 4.51e-05,
        "meta_inclination": 0.0073,
        "meta_ra_of_asc_node": 153.6878,
        "meta_arg_of_pericenter": 343.34,
        "meta_mean_anomaly": 72.981,
        "meta_ephemeris_type": 0,
        "meta_classification_type": "U",
        "meta_norad_cat_id": 40425,
        "meta_element_set_no": 999,
        "meta_rev_at_epoch": 3948,
        "meta_bstar": 0,
        "meta_mean_motion_dot": -2.2e-07,
        "meta_mean_motion_ddot": 0,
        "tle_line1": "1 40425U 15010B   25342.68669808 -.00000022  00000+0  00000+0 0  9992",
        "tle_line2": "2 40425   0.0073 153.6878 0000451 343.3400  72.9810  1.00262920 39485"
      },
      "geometry": {
        "type": "Point",
        "coordinates": [
          36.227494574207725,
          -0.011237436551418624
        ]
      }
    },
    {
      "type": "Feature",
      "properties": {
        "norad_id": 40875,
        "name": "EUTELSAT 8 WEST B",
        "group": "eutelsat",
        "lat": 0.045855757693949194,
        "lon": 143.11150397763063,
        "alt_km": 35793.84237129465,
        "timestamp": "2025-12-09T04:51:47.179660+00:00",
        "meta_object_name": "EUTELSAT 8 WEST B",
        "meta_object_id": "2015-039B",
        "meta_epoch": "2025-12-08T18:42:09.047232",
        "meta_mean_motion": 1.00271451,
        "meta_eccentricity": 0.0004145,
        "meta_inclination": 0.0646,
        "meta_ra_of_asc_node": 359.1923,
        "meta_arg_of_pericenter": 259.8544,
        "meta_mean_anomaly": 91.2858,
        "meta_ephemeris_type": 0,
        "meta_classification_type": "U",
        "meta_norad_cat_id": 40875,
        "meta_element_set_no": 999,
        "meta_rev_at_epoch": 3774,
        "meta_bstar": 0,
        "meta_mean_motion_dot": -6.3e-07,
        "meta_mean_motion_ddot": 0,
        "tle_line1": "1 40875U 15039B   25342.77927138 -.00000063  00000+0  00000+0 0  9990",
        "tle_line2": "2 40875   0.0646 359.1923 0004145 259.8544  91.2858  1.00271451 37740"
      },
      "geometry": {
        "type": "Point",
        "coordinates": [
          143.11150397763063,
          0.045855757693949194
        ]
      }
    },
    {
      "type": "Feature",
      "properties": {
        "norad_id": 41310,
        "name": "EUTELSAT 9B",
        "group": "eutelsat",
        "lat": 0.03316270844886744,
        "lon": 160.09690713588228,
        "alt_km": 35791.186298948,
        "timestamp": "2025-12-09T04:51:47.179672+00:00",
        "meta_object_name": "EUTELSAT 9B",
        "meta_object_id": "2016-005A",
        "meta_epoch": "2025-12-08T18:47:01.080096",
        "meta_mean_motion": 1.0027199,
        "meta_eccentricity": 0.0004895,
        "meta_inclination": 0.035,
        "meta_ra_of_asc_node": 51.0952,
        "meta_arg_of_pericenter": 213.5895,
        "meta_mean_anomaly": 103.8639,
        "meta_ephemeris_type": 0,
        "meta_classification_type": "U",
        "meta_norad_cat_id": 41310,
        "meta_element_set_no": 999,
        "meta_rev_at_epoch": 3620,
        "meta_bstar": 0,
        "meta_mean_motion_dot": 6.4e-07,
        "meta_mean_motion_ddot": 0,
        "tle_line1": "1 41310U 16005A   25342.78265139  .00000064  00000+0  00000+0 0  9996",
        "tle_line2": "2 41310   0.0350  51.0952 0004895 213.5895 103.8639  1.00271990 36200"
      },
      "geometry": {
        "type": "Point",
        "coordinates": [
          160.09690713588228,
          0.03316270844886744
        ]
      }
    },
    {
      "type": "Feature",
      "properties": {
        "norad_id": 41382,
        "name": "EUTELSAT 65 WEST A",
        "group": "eutelsat",
        "lat": 0.06986971682306413,
        "lon": 85.92580348674493,
        "alt_km": 35797.196397316926,
        "timestamp": "2025-12-09T04:51:47.179684+00:00",
        "meta_object_name": "EUTELSAT 65 WEST A",
        "meta_object_id": "2016-014A",
        "meta_epoch": "2025-12-08T12:41:22.901856",
        "meta_mean_motion": 1.00271818,
        "meta_eccentricity": 0.00026162,
        "meta_inclination": 0.0497,
        "meta_ra_of_asc_node": 1.9264,
        "meta_arg_of_pericenter": 260.5786,
        "meta_mean_anomaly": 300.161,
        "meta_ephemeris_type": 0,
        "meta_classification_type": "U",
        "meta_norad_cat_id": 41382,
        "meta_element_set_no": 999,
        "meta_rev_at_epoch": 3562,
        "meta_bstar": 0,
        "meta_mean_motion_dot": -2.74e-06,
        "meta_mean_motion_ddot": 0,
        "tle_line1": "1 41382U 16014A   25342.52873729 -.00000274  00000+0  00000+0 0  9991",
        "tle_line2": "2 41382   0.0497   1.9264 0002616 260.5786 300.1610  1.00271818 35626"
      },
      "geometry": {
        "type": "Point",
        "coordinates": [
          85.92580348674493,
          0.06986971682306413
        ]
      }
    },
    {
      "type": "Feature",
      "properties": {
        "norad_id": 41589,
        "name": "EUTELSAT 117 WEST B",
        "group": "eutelsat",
        "lat": -0.010835982341927196,
        "lon": 34.13356899741459,
        "alt_km": 35786.23337754506,
        "timestamp": "2025-12-09T04:51:47.179696+00:00",
        "meta_object_name": "EUTELSAT 117 WEST B",
        "meta_object_id": "2016-038B",
        "meta_epoch": "2025-12-08T16:28:20.761824",
        "meta_mean_motion": 1.00268965,
        "meta_eccentricity": 4.33e-05,
        "meta_inclination": 0.0072,
        "meta_ra_of_asc_node": 147.2989,
        "meta_arg_of_pericenter": 317.1838,
        "meta_mean_anomaly": 103.2954,
        "meta_ephemeris_type": 0,
        "meta_classification_type": "U",
        "meta_norad_cat_id": 41589,
        "meta_element_set_no": 999,
        "meta_rev_at_epoch": 3475,
        "meta_bstar": 0,
        "meta_mean_motion_dot": -9e-08,
        "meta_mean_motion_ddot": 0,
        "tle_line1": "1 41589U 16038B   25342.68635141 -.00000009  00000+0  00000+0 0  9993",
        "tle_line2": "2 41589   0.0072 147.2989 0000433 317.1838 103.2954  1.00268965 34759"
      },
      "geometry": {
        "type": "Point",
        "coordinates": [
          34.13356899741459,
          -0.010835982341927196
        ]
      }
    },
    {
      "type": "Feature",
      "properties": {
        "norad_id": 42741,
        "name": "EUTELSAT 172B",
        "group": "eutelsat",
        "lat": -0.004853105975085295,
        "lon": -36.85214183275748,
        "alt_km": 35785.803453749344,
        "timestamp": "2025-12-09T04:51:47.179707+00:00",
        "meta_object_name": "EUTELSAT 172B",
        "meta_object_id": "2017-029B",
        "meta_epoch": "2025-12-08T20:03:38.651328",
        "meta_mean_motion": 1.00270561,
        "meta_eccentricity": 1.62e-05,
        "meta_inclination": 0.0129,
        "meta_ra_of_asc_node": 88.9406,
        "meta_arg_of_pericenter": 207.2634,
        "meta_mean_anomaly": 254.5512,
        "meta_ephemeris_type": 0,
        "meta_classification_type": "U",
        "meta_norad_cat_id": 42741,
        "meta_element_set_no": 999,
        "meta_rev_at_epoch": 3182,
        "meta_bstar": 0,
        "meta_mean_motion_dot": -4e-08,
        "meta_mean_motion_ddot": 0,
        "tle_line1": "1 42741U 17029B   25342.83586402 -.00000004  00000+0  00000+0 0  9992",
        "tle_line2": "2 42741   0.0129  88.9406 0000162 207.2634 254.5512  1.00270561 31820"
      },
      "geometry": {
        "type": "Point",
        "coordinates": [
          -36.85214183275748,
          -0.004853105975085295
        ]
      }
    }
  ]
}